start=new Date('2023-01-13T00:00:00.000Z').valueOf();
sats=[{"ECCENTRICITY":"0.00012280","TIME_SYSTEM":"UTC","EPOCH":"2023-01-12T23:33:30.595968","MEAN_ELEMENT_THEORY":"SGP4","OBJECT_ID":"2020-019AD","CLASSIFICATION_TYPE":"U","REV_AT_EPOCH":"15639","LAUNCH_DATE":"2020-03-18","INCLINATION":"53.0534","OBJECT_TYPE":"PAYLOAD","NORAD_CAT_ID":"45387","FILE":"3742091","CENTER_NAME":"EARTH","COUNTRY_CODE":"US","ARG_OF_PERICENTER":"91.1714","OBJECT_NAME":"STARLINK-1274","GP_ID":"222864488","SEMIMAJOR_AXIS":"6925.372","MEAN_MOTION":"15.06392305","PERIAPSIS":"546.387","REF_FRAME":"TEME","MEAN_MOTION_DOT":"-0.00002734","SITE":"AFETR","ELEMENT_SET_NO":"999","TLE_LINE2":"2 45387  53.0534 276.8395 0001228  91.1714 268.9416 15.06392305156399","MEAN_MOTION_DDOT":"0.0000000000000","APOAPSIS":"548.088","PERIOD":"95.593","MEAN_ANOMALY":"268.9416","RA_OF_ASC_NODE":"276.8395","DECAY_DATE":null,"BSTAR":"-0.00016474000000","EPHEMERIS_TYPE":"0","RCS_SIZE":"LARGE","TLE_LINE1":"1 45387U 20019AD  23012.98160412 -.00002734  00000-0 -16474-3 0  9991"},{"EPHEMERIS_TYPE":"0","RCS_SIZE":"LARGE","TLE_LINE1":"1 45388U 20019AE  23013.01662670 -.00012754  00000-0 -83987-3 0  9996","RA_OF_ASC_NODE":"296.6872","BSTAR":"-0.00083987000000","DECAY_DATE":null,"TLE_LINE2":"2 45388  53.0541 296.6872 0001444 105.0566 255.0583 15.06355396156142","APOAPSIS":"548.350","PERIOD":"95.595","MEAN_ANOMALY":"255.0583","MEAN_MOTION_DDOT":"0.0000000000000","MEAN_MOTION_DOT":"-0.00012754","REF_FRAME":"TEME","ELEMENT_SET_NO":"999","SITE":"AFETR","GP_ID":"222863516","MEAN_MOTION":"15.06355396","SEMIMAJOR_AXIS":"6925.485","PERIAPSIS":"546.350","CENTER_NAME":"EARTH","OBJECT_TYPE":"PAYLOAD","NORAD_CAT_ID":"45388","FILE":"3742056","OBJECT_NAME":"STARLINK-1280","COUNTRY_CODE":"US","ARG_OF_PERICENTER":"105.0566","CLASSIFICATION_TYPE":"U","INCLINATION":"53.0541","LAUNCH_DATE":"2020-03-18","REV_AT_EPOCH":"15614","ECCENTRICITY":"0.00014440","TIME_SYSTEM":"UTC","EPOCH":"2023-01-13T00:23:56.546880","MEAN_ELEMENT_THEORY":"SGP4","OBJECT_ID":"2020-019AE"},{"CENTER_NAME":"EARTH","OBJECT_TYPE":"PAYLOAD","FILE":"3742056","NORAD_CAT_ID":"45389","OBJECT_NAME":"STARLINK-1283","COUNTRY_CODE":"US","ARG_OF_PERICENTER":"93.3433","GP_ID":"222863201","SEMIMAJOR_AXIS":"6925.357","MEAN_MOTION":"15.06397278","PERIAPSIS":"545.886","ECCENTRICITY":"0.00019290","TIME_SYSTEM":"UTC","EPOCH":"2023-01-12T23:54:46.047456","MEAN_ELEMENT_THEORY":"SGP4","OBJECT_ID":"2020-019AF","CLASSIFICATION_TYPE":"U","INCLINATION":"53.0519","LAUNCH_DATE":"2020-03-18","REV_AT_EPOCH":"15642","RA_OF_ASC_NODE":"276.7712","BSTAR":"0.00032630000000","DECAY_DATE":null,"EPHEMERIS_TYPE":"0","RCS_SIZE":"LARGE","TLE_LINE1":"1 45389U 20019AF  23012.99636629  .00004582  00000-0  32630-3 0  9995","MEAN_MOTION_DOT":"0.00004582","REF_FRAME":"TEME","ELEMENT_SET_NO":"999","SITE":"AFETR","TLE_LINE2":"2 45389  53.0519 276.7712 0001929  93.3433 266.7776 15.06397278156429","MEAN_ANOMALY":"266.7776","APOAPSIS":"548.558","PERIOD":"95.592","MEAN_MOTION_DDOT":"0.0000000000000"},{"ELEMENT_SET_NO":"999","SITE":"AFETR","MEAN_MOTION_DOT":"0.00002037","REF_FRAME":"TEME","APOAPSIS":"548.243","PERIOD":"95.592","MEAN_ANOMALY":"280.1114","MEAN_MOTION_DDOT":"0.0000000000000","TLE_LINE2":"2 45390  53.0523 277.1897 0001470  80.0041 280.1114 15.06396275156404","BSTAR":"0.00015563000000","DECAY_DATE":null,"RA_OF_ASC_NODE":"277.1897","TLE_LINE1":"1 45390U 20019AG  23012.90421565  .00002037  00000-0  15563-3 0  9998","EPHEMERIS_TYPE":"0","RCS_SIZE":"LARGE","MEAN_ELEMENT_THEORY":"SGP4","EPOCH":"2023-01-12T21:42:04.232160","OBJECT_ID":"2020-019AG","TIME_SYSTEM":"UTC","ECCENTRICITY":"0.00014700","CLASSIFICATION_TYPE":"U","REV_AT_EPOCH":"15640","LAUNCH_DATE":"2020-03-18","INCLINATION":"53.0523","OBJECT_NAME":"STARLINK-1284","COUNTRY_CODE":"US","ARG_OF_PERICENTER":"80.0041","CENTER_NAME":"EARTH","OBJECT_TYPE":"PAYLOAD","NORAD_CAT_ID":"45390","FILE":"3742227","SEMIMAJOR_AXIS":"6925.360","MEAN_MOTION":"15.06396275","PERIAPSIS":"546.207","GP_ID":"222886750"},{"CENTER_NAME":"EARTH","OBJECT_TYPE":"PAYLOAD","NORAD_CAT_ID":"45391","FILE":"3742025","OBJECT_NAME":"STARLINK-1289","COUNTRY_CODE":"US","ARG_OF_PERICENTER":"87.2044","GP_ID":"222862325","MEAN_MOTION":"15.06400180","SEMIMAJOR_AXIS":"6925.348","PERIAPSIS":"546.349","TIME_SYSTEM":"UTC","ECCENTRICITY":"0.00012470","MEAN_ELEMENT_THEORY":"SGP4","EPOCH":"2023-01-12T23:37:28.559712","OBJECT_ID":"2020-019AH","CLASSIFICATION_TYPE":"U","LAUNCH_DATE":"2020-03-18","INCLINATION":"53.0527","REV_AT_EPOCH":"15614","RA_OF_ASC_NODE":"276.8279","BSTAR":"0.00015341000000","DECAY_DATE":null,"EPHEMERIS_TYPE":"0","RCS_SIZE":"LARGE","TLE_LINE1":"1 45391U 20019AH  23012.98435833  .00002004  00000-0  15341-3 0  9998","MEAN_MOTION_DOT":"0.00002004","REF_FRAME":"TEME","ELEMENT_SET_NO":"999","SITE":"AFETR","TLE_LINE2":"2 45391  53.0527 276.8279 0001247  87.2044 272.9087 15.06400180156143","APOAPSIS":"548.077","PERIOD":"95.592","MEAN_ANOMALY":"272.9087","MEAN_MOTION_DDOT":"0.0000000000000"},{"REF_FRAME":"TEME","MEAN_MOTION_DOT":"0.00039193","SITE":"AFETR","ELEMENT_SET_NO":"999","TLE_LINE2":"2 45392  52.9819 248.3190 0002238  78.4983 281.6264 15.23599505156476","MEAN_MOTION_DDOT":"0.0000000000000","APOAPSIS":"496.534","PERIOD":"94.513","MEAN_ANOMALY":"281.6264","RA_OF_ASC_NODE":"248.3190","DECAY_DATE":null,"BSTAR":"0.00162150000000","RCS_SIZE":"LARGE","EPHEMERIS_TYPE":"0","TLE_LINE1":"1 45392U 20019AJ  23012.89682221  .00039193  00000-0  16215-2 0  9993","TIME_SYSTEM":"UTC","ECCENTRICITY":"0.00022380","OBJECT_ID":"2020-019AJ","MEAN_ELEMENT_THEORY":"SGP4","EPOCH":"2023-01-12T21:31:25.438944","INCLINATION":"52.9819","LAUNCH_DATE":"2020-03-18","REV_AT_EPOCH":"15647","CLASSIFICATION_TYPE":"U","FILE":"3742227","NORAD_CAT_ID":"45392","OBJECT_TYPE":"PAYLOAD","CENTER_NAME":"EARTH","ARG_OF_PERICENTER":"78.4983","COUNTRY_CODE":"US","OBJECT_NAME":"STARLINK-1290","GP_ID":"222885750","PERIAPSIS":"493.458","MEAN_MOTION":"15.23599505","SEMIMAJOR_AXIS":"6873.131"},{"CENTER_NAME":"EARTH","OBJECT_TYPE":"PAYLOAD","FILE":"3742227","NORAD_CAT_ID":"45393","OBJECT_NAME":"STARLINK-1291","COUNTRY_CODE":"US","ARG_OF_PERICENTER":"82.4196","GP_ID":"222886000","MEAN_MOTION":"15.06407562","SEMIMAJOR_AXIS":"6925.325","PERIAPSIS":"546.062","TIME_SYSTEM":"UTC","ECCENTRICITY":"0.00016300","EPOCH":"2023-01-12T22:45:44.104896","MEAN_ELEMENT_THEORY":"SGP4","OBJECT_ID":"2020-019AK","CLASSIFICATION_TYPE":"U","LAUNCH_DATE":"2020-03-18","REV_AT_EPOCH":"15617","INCLINATION":"53.0537","RA_OF_ASC_NODE":"276.9926","BSTAR":"0.00008326000000","DECAY_DATE":null,"EPHEMERIS_TYPE":"0","RCS_SIZE":"LARGE","TLE_LINE1":"1 45393U 20019AK  23012.94842714  .00000959  00000-0  83260-4 0  9999","MEAN_MOTION_DOT":"0.00000959","REF_FRAME":"TEME","ELEMENT_SET_NO":"999","SITE":"AFETR","TLE_LINE2":"2 45393  53.0537 276.9926 0001630  82.4196 277.6979 15.06407562156173","MEAN_ANOMALY":"277.6979","APOAPSIS":"548.319","PERIOD":"95.592","MEAN_MOTION_DDOT":"0.0000000000000"},{"MEAN_MOTION_DOT":"0.00013881","REF_FRAME":"TEME","ELEMENT_SET_NO":"999","SITE":"AFETR","TLE_LINE2":"2 45394  53.0518 277.1571 0001750 101.4960 258.6225 15.06394444156140","APOAPSIS":"548.443","MEAN_ANOMALY":"258.6225","PERIOD":"95.592","MEAN_MOTION_DDOT":"0.0000000000000","RA_OF_ASC_NODE":"277.1571","BSTAR":"0.00094906000000","DECAY_DATE":null,"EPHEMERIS_TYPE":"0","RCS_SIZE":"LARGE","TLE_LINE1":"1 45394U 20019AL  23012.91159169  .00013881  00000-0  94906-3 0  9998","ECCENTRICITY":"0.00017500","TIME_SYSTEM":"UTC","MEAN_ELEMENT_THEORY":"SGP4","EPOCH":"2023-01-12T21:52:41.522016","OBJECT_ID":"2020-019AL","CLASSIFICATION_TYPE":"U","REV_AT_EPOCH":"15614","LAUNCH_DATE":"2020-03-18","INCLINATION":"53.0518","CENTER_NAME":"EARTH","OBJECT_TYPE":"PAYLOAD","NORAD_CAT_ID":"45394","FILE":"3742227","OBJECT_NAME":"STARLINK-1292","COUNTRY_CODE":"US","ARG_OF_PERICENTER":"101.4960","GP_ID":"222887250","MEAN_MOTION":"15.06394444","SEMIMAJOR_AXIS":"6925.366","PERIAPSIS":"546.019"},{"OBJECT_NAME":"STARLINK-1297","ARG_OF_PERICENTER":"56.6897","COUNTRY_CODE":"US","CENTER_NAME":"EARTH","FILE":"3742057","NORAD_CAT_ID":"45395","OBJECT_TYPE":"PAYLOAD","PERIAPSIS":"545.734","SEMIMAJOR_AXIS":"6925.362","MEAN_MOTION":"15.06395699","GP_ID":"222863214","OBJECT_ID":"2020-019AM","MEAN_ELEMENT_THEORY":"SGP4","EPOCH":"2023-01-13T00:10:40.860768","ECCENTRICITY":"0.00021560","TIME_SYSTEM":"UTC","REV_AT_EPOCH":"15618","LAUNCH_DATE":"2020-03-18","INCLINATION":"53.0548","CLASSIFICATION_TYPE":"U","BSTAR":"0.00001303600000","DECAY_DATE":null,"RA_OF_ASC_NODE":"276.7223","TLE_LINE1":"1 45395U 20019AM  23013.00741737 -.00000088  00000-0  13036-4 0  9990","RCS_SIZE":"LARGE","EPHEMERIS_TYPE":"0","ELEMENT_SET_NO":"999","SITE":"AFETR","MEAN_MOTION_DOT":"-0.00000088","REF_FRAME":"TEME","APOAPSIS":"548.720","PERIOD":"95.592","MEAN_ANOMALY":"303.4298","MEAN_MOTION_DDOT":"0.0000000000000","TLE_LINE2":"2 45395  53.0548 276.7223 0002156  56.6897 303.4298 15.06395699156180"},{"ECCENTRICITY":"0.00013160","TIME_SYSTEM":"UTC","MEAN_ELEMENT_THEORY":"SGP4","EPOCH":"2023-01-12T23:44:09.510144","OBJECT_ID":"2020-019AN","CLASSIFICATION_TYPE":"U","LAUNCH_DATE":"2020-03-18","REV_AT_EPOCH":"15613","INCLINATION":"53.0561","CENTER_NAME":"EARTH","OBJECT_TYPE":"PAYLOAD","FILE":"3742092","NORAD_CAT_ID":"45396","OBJECT_NAME":"STARLINK-1303","COUNTRY_CODE":"US","ARG_OF_PERICENTER":"92.1588","GP_ID":"222864506","SEMIMAJOR_AXIS":"6925.377","MEAN_MOTION":"15.06390669","PERIAPSIS":"546.331","MEAN_MOTION_DOT":"-0.00000981","REF_FRAME":"TEME","ELEMENT_SET_NO":"999","SITE":"AFETR","TLE_LINE2":"2 45396  53.0561 276.8048 0001316  92.1588 267.9552 15.06390669156135","PERIOD":"95.593","APOAPSIS":"548.154","MEAN_ANOMALY":"267.9552","MEAN_MOTION_DDOT":"0.0000000000000","RA_OF_ASC_NODE":"276.8048","BSTAR":"-0.00004695600000","DECAY_DATE":null,"EPHEMERIS_TYPE":"0","RCS_SIZE":"LARGE","TLE_LINE1":"1 45396U 20019AN  23012.98899896 -.00000981  00000-0 -46956-4 0  9997"}];
